[{"OBJECT_NAME":"STARLINK-3088","OBJECT_ID":"2021-082AK","EPOCH":"2026-03-09T21:56:53.146464","MEAN_MOTION":14.97522709,"ECCENTRICITY":0.00022372,"INCLINATION":69.9979,"RA_OF_ASC_NODE":274.6741,"ARG_OF_PERICENTER":269.4701,"MEAN_ANOMALY":90.6201,"EPHEMERIS_TYPE":0,"CLASSIFICATION_TYPE":"U","NORAD_CAT_ID":49163,"ELEMENT_SET_NO":999,"REV_AT_EPOCH":24764,"BSTAR":3.6026631e-5,"MEAN_MOTION_DOT":3.29e-6,"MEAN_MOTION_DDOT":0},{"OBJECT_NAME":"CZ-6A DEB","OBJECT_ID":"2022-151CD","EPOCH":"2026-03-09T04:34:52.178880","MEAN_MOTION":15.04926808,"ECCENTRICITY":0.00436133,"INCLINATION":98.6267,"RA_OF_ASC_NODE":153.8749,"ARG_OF_PERICENTER":159.2339,"MEAN_ANOMALY":201.0669,"EPHEMERIS_TYPE":0,"CLASSIFICATION_TYPE":"U","NORAD_CAT_ID":54334,"ELEMENT_SET_NO":999,"REV_AT_EPOCH":17669,"BSTAR":0.0057373504,"MEAN_MOTION_DOT":0.00083812,"MEAN_MOTION_DDOT":0}]
